ONEWEB-0504             
1 54122U 22138K   24262.49467287 -.00000010  00000+0 -57507-4 0  9993
2 54122  87.9099  71.6029 0001437  98.7138 261.4157 13.19724035 92859
ONEWEB-0505             
1 54123U 22138L   24262.49151284  .00000038  00000+0  61861-4 0  9997
2 54123  87.9096  71.5972 0001515 116.8296 243.2992 13.19724148 92835
ONEWEB-0506             
1 54124U 22138M   24262.54205192 -.00000057  00000+0 -17532-3 0  9990
2 54124  87.9096  71.5842 0001669  98.6570 261.4752 13.19725601 92835
ONEWEB-0507             
1 54125U 22138N   24262.48677582  .00000069  00000+0  14044-3 0  9996
2 54125  87.9106  71.6242 0001799 102.0247 258.1087 13.19724143 92876
ONEWEB-0508             
1 54126U 22138P   24262.48360122  .00000011  00000+0 -53229-5 0  9994
2 54126  87.9101  71.6155 0001864 107.4964 252.6372 13.19723270 92857
ONEWEB-0509             
1 54127U 22138Q   24262.45834077 -.00000013  00000+0 -64467-4 0  9995
2 54127  87.9093  71.6014 0001658  95.9015 264.2307 13.19724844 92823
ONEWEB-0510             
1 54128U 22138R   24262.47141919  .00000057  00000+0  10800-3 0  9991
2 54128  87.9240  41.0775 0002160  91.9863 268.1518 13.20768654 95233
ONEWEB-0511             
1 54129U 22138S   24262.53098365 -.00000025  00000+0 -95916-4 0  9994
2 54129  87.9094  71.5904 0001389  89.9316 270.1976 13.19726284 92863
